T1DES 1 (DRAGOON 1)     
1 64542U 25135Q   26068.31050305  .00014527  00000+0  60518-3 0  9997
2 64542  97.4578 184.7906 0003878 148.7870 211.3598 15.23819655 39702
KUIPER-00155            
1 65774U 25217N   26068.27121362  .00019122  00000+0  81110-3 0  9990
2 65774  51.8785  13.4958 0005405 320.4858  39.5728 15.23116677 25256
